#aV2007  8 18  0  0   .00000000      96 DD+AD WGS84 FIT  NGA
## 1440 518400.00000000   900.00000000 54330  .0000000000000
+   31     1  2  3  4  5  6  7  8  9 10 11 12 13 14 16 17 18
+         19 20 21 22 23 24 25 26 27 28 29 30 31 32  0  0  0
+          0  0  0  0  0  0  0  0  0  0  0  0  0  0  0  0  0
+          0  0  0  0  0  0  0  0  0  0  0  0  0  0  0  0  0
+          0  0  0  0  0  0  0  0  0  0  0  0  0  0  0  0  0
++         0  0  0  0  0  0  0  0  0  0  0  0  0  0  0  0  0
++         0  0  0  0  0  0  0  0  0  0  0  0  0  0  0  0  0
++         0  0  0  0  0  0  0  0  0  0  0  0  0  0  0  0  0
++         0  0  0  0  0  0  0  0  0  0  0  0  0  0  0  0  0
++         0  0  0  0  0  0  0  0  0  0  0  0  0  0  0  0  0
%c cc cc ccc ccc cccc cccc cccc cccc ccccc ccccc ccccc ccccc
%c cc cc ccc ccc cccc cccc cccc cccc ccccc ccccc ccccc ccccc
%f  0.0000000  0.000000000  0.00000000000  0.000000000000000
%f  0.0000000  0.000000000  0.00000000000  0.000000000000000
%i    0    0    0    0      0      0      0      0         0
%i    0    0    0    0      0      0      0      0         0
/*      NGA, ST. LOUIS,MO.                                  
/*   EPHEMERIS COMPUTED FROM  3 DAYS OF DATA                
/* CCCCCCCCCCCCCCCCCCCCCCCCCCCCCCCCCCCCCCCCCCCCCCCCCCCCCCCCC
/* CCCCCCCCCCCCCCCCCCCCCCCCCCCCCCCCCCCCCCCCCCCCCCCCCCCCCCCCC
*  2007  8 18 19  0   .00000000                                                 
P  1  15914.363363 -19156.071551  -8906.074898    146.880500                    
V  1  -3486.094929  11208.032300 -29714.933680       .024102                    
P  2 -17570.660732  12920.518931  14750.872892    130.007382                    
V  2 -19417.906971   -264.099210 -22896.941233       .027777                    
P  3  10115.673649 -24120.444191   3170.011737    103.216911                    
V  3   2683.313021   5407.686601  30833.480179       .054668                    
P  4 -25504.603689   6297.904293   4982.353225       .723448                    
V  4  -6634.522012  -2268.309040 -30319.497403      -.023919                    
P  5  15476.899122  21409.139449  -3707.307431    304.304384                    
V  5  -5353.236569  -1116.069878 -30738.382537       .383507                    
P  6  11357.267155  12762.192683  20519.554718    246.007959                    
V  6 -10251.923689  23636.719629  -9144.188893       .015234                    
P  7  12929.396472  10225.966208  21164.422461    140.277079                    
V  7  -9453.032025  24434.414877  -6178.796536      -.235944                    
P  8 -26573.771497   -432.829769   3397.002278   -119.393880                    
V  8   4250.950767  -2142.751989  31475.702334      -.014458                    
P  9   4096.571567  14884.484819 -22234.905893     83.791525                    
V  9 -26415.575789   4193.168255  -1922.579150       .015529                    
P 10  -5600.288944  16103.546405  20163.272881    106.301959                    
V 10 -15931.269744 -20492.590021  12182.825645       .004722                    
P 11  -7279.494234 -15193.717299 -20666.333525     22.375639                    
V 11  25087.494399  -7858.618666  -2769.374682       .005070                    
P 12   9863.250424  23136.583898  -8538.810638    -53.137150                    
V 12  -8578.606187  -7270.952816 -29205.078506      -.013012                    
P 13  -9460.699331 -12428.500390  21379.705934    199.351527                    
V 13  12153.817994 -24454.985351  -8766.148370       .030711                    
P 14  17058.538198  -7707.289437 -18717.771937     36.245646                    
V 14  -8931.988932  22209.687085 -17296.630933       .021439                    
P 16  10198.548985 -11570.879061  21685.192533    170.191673                    
V 16  16364.115895  21929.487093   4176.837076       .023898                    
P 17 -17230.781499   5459.941075 -19395.632425     57.419903                    
V 17   8687.400494 -23180.342641 -14361.003575      -.012617                    
P 18  19229.986321  15639.347869  -9857.715809   -240.050128                    
V 18   5067.192681  11851.373318  27896.612887       .015592                    
P 19   5716.594454 -24391.175559  -8510.470768     59.175122                    
V 19   7504.277535  -8508.288377  29221.484893       .026570                    
P 20 -12516.564935 -22807.307055  -5540.428423    -28.309642                    
V 20   6559.105481   3674.149483 -30477.889182      -.005480                    
P 21  22964.346912   6936.457844  12152.805481     78.619329                    
V 21 -14777.327424   3748.927762  25500.172439      -.000799                    
P 22  18413.090895   3356.203758 -18703.771852    194.829368                    
V 22  12172.845358  20860.413002  15551.300151       .013925                    
P 23  -3241.339619 -20574.548969  16267.184064    192.361927                    
V 23   9944.314787 -18442.506460 -21457.881013       .036596                    
P 24  12132.836786  13183.649894  19716.010143     23.792657                    
V 24 -24564.519734   3002.785867  13528.355748       .027592                    
P 25 -17483.581734  -9159.248523  18065.251983    411.725631                    
V 25  21435.297444  -6256.113736  18085.233795       .129041                    
P 26  -7757.560034  24586.715299  -5434.580156   -374.795166                    
V 26  -4678.135220   4871.516164  31832.419733      -.229162                    
P 27 -22949.038271  -5145.924746  13199.890684    129.640891                    
V 27  15051.463599  -4576.662546  25444.494738       .021803                    
P 28 -19305.112360  -7246.159497 -16589.988135     -5.190647                    
V 28 -11117.207769 -18571.132065  20286.253557      -.007349                    
P 29 -10525.637464  24151.859434    138.184510      5.158299                    
V 29  -2080.553553   -826.261955  32636.852589       .002539                    
P 30  17936.024370  19481.269626   2400.613582     42.873205                    
V 30   -310.641062   4658.851141 -31180.803321       .011155                    
P 31  23729.167448  -8781.825576   8391.338128     12.427332                    
V 31  10582.082524   1155.292617 -29335.516250      -.012528                    
P 32  11835.191860  -8815.211487 -21618.086116     17.929516                    
V 32  15183.296966  24169.046135  -1384.380136       .184538                    
EOF
